CCSDS_OMM_VERS = 2.0
CREATION_DATE  = 
ORIGINATOR     = 

OBJECT_NAME    = TWILIGHT Q
OBJECT_ID      = 2026-004Q
CENTER_NAME    = EARTH
REF_FRAME      = TEME
TIME_SYSTEM    = UTC
MEAN_ELEMENT_THEORY = SGP/SGP4

EPOCH          = 2026-02-03T03:24:52.892640
MEAN_MOTION    = 14.87972229
ECCENTRICITY   = .0004484
INCLINATION    = 97.8004
RA_OF_ASC_NODE = 34.9378
ARG_OF_PERICENTER = 186.7171
MEAN_ANOMALY   = 173.3987

EPHEMERIS_TYPE = 0
CLASSIFICATION_TYPE = U
NORAD_CAT_ID   = 67377
ELEMENT_SET_NO = 999
REV_AT_EPOCH   = 335
BSTAR          = .32889E-3
MEAN_MOTION_DOT = .2963E-4
MEAN_MOTION_DDOT = 0

CCSDS_OMM_VERS = 2.0
CREATION_DATE  = 
ORIGINATOR     = 

OBJECT_NAME    = TWILIGHT R
OBJECT_ID      = 2026-004R
CENTER_NAME    = EARTH
REF_FRAME      = TEME
TIME_SYSTEM    = UTC
MEAN_ELEMENT_THEORY = SGP/SGP4

EPOCH          = 2026-02-03T03:30:03.541248
MEAN_MOTION    = 14.87726041
ECCENTRICITY   = .0004189
INCLINATION    = 97.7975
RA_OF_ASC_NODE = 34.9268
ARG_OF_PERICENTER = 203.1861
MEAN_ANOMALY   = 156.9167

EPHEMERIS_TYPE = 0
CLASSIFICATION_TYPE = U
NORAD_CAT_ID   = 67378
ELEMENT_SET_NO = 999
REV_AT_EPOCH   = 335
BSTAR          = .31724E-3
MEAN_MOTION_DOT = .2838E-4
MEAN_MOTION_DDOT = 0

CCSDS_OMM_VERS = 2.0
CREATION_DATE  = 
ORIGINATOR     = 

OBJECT_NAME    = TWILIGHT S
OBJECT_ID      = 2026-004S
CENTER_NAME    = EARTH
REF_FRAME      = TEME
TIME_SYSTEM    = UTC
MEAN_ELEMENT_THEORY = SGP/SGP4

EPOCH          = 2026-02-03T03:29:49.030368
MEAN_MOTION    = 14.87733711
ECCENTRICITY   = .0004728
INCLINATION    = 97.7979
RA_OF_ASC_NODE = 34.9289
ARG_OF_PERICENTER = 199.9465
MEAN_ANOMALY   = 160.1567

EPHEMERIS_TYPE = 0
CLASSIFICATION_TYPE = U
NORAD_CAT_ID   = 67379
ELEMENT_SET_NO = 999
REV_AT_EPOCH   = 335
BSTAR          = .30932E-3
MEAN_MOTION_DOT = .2767E-4
MEAN_MOTION_DDOT = 0

CCSDS_OMM_VERS = 2.0
CREATION_DATE  = 
ORIGINATOR     = 

OBJECT_NAME    = TWILIGHT T
OBJECT_ID      = 2026-004T
CENTER_NAME    = EARTH
REF_FRAME      = TEME
TIME_SYSTEM    = UTC
MEAN_ELEMENT_THEORY = SGP/SGP4

EPOCH          = 2026-02-03T03:27:49.411296
MEAN_MOTION    = 14.87834995
ECCENTRICITY   = .0004257
INCLINATION    = 97.7971
RA_OF_ASC_NODE = 34.9288
ARG_OF_PERICENTER = 198.3150
MEAN_ANOMALY   = 161.7913

EPHEMERIS_TYPE = 0
CLASSIFICATION_TYPE = U
NORAD_CAT_ID   = 67380
ELEMENT_SET_NO = 999
REV_AT_EPOCH   = 335
BSTAR          = .31747E-3
MEAN_MOTION_DOT = .2848E-4
MEAN_MOTION_DDOT = 0

CCSDS_OMM_VERS = 2.0
CREATION_DATE  = 
ORIGINATOR     = 

OBJECT_NAME    = TWILIGHT U
OBJECT_ID      = 2026-004U
CENTER_NAME    = EARTH
REF_FRAME      = TEME
TIME_SYSTEM    = UTC
MEAN_ELEMENT_THEORY = SGP/SGP4

EPOCH          = 2026-01-29T02:22:17.171904
MEAN_MOTION    = 14.87635167
ECCENTRICITY   = .00020462
INCLINATION    = 97.8008
RA_OF_ASC_NODE = 29.9801
ARG_OF_PERICENTER = 271.4981
MEAN_ANOMALY   = 88.6001

EPHEMERIS_TYPE = 0
CLASSIFICATION_TYPE = U
NORAD_CAT_ID   = 67381
ELEMENT_SET_NO = 999
REV_AT_EPOCH   = 260
BSTAR          = -.12141477E-1
MEAN_MOTION_DOT = -.108717E-2
MEAN_MOTION_DDOT = 0

CCSDS_OMM_VERS = 2.0
CREATION_DATE  = 
ORIGINATOR     = 

OBJECT_NAME    = TWILIGHT V
OBJECT_ID      = 2026-004V
CENTER_NAME    = EARTH
REF_FRAME      = TEME
TIME_SYSTEM    = UTC
MEAN_ELEMENT_THEORY = SGP/SGP4

EPOCH          = 2026-02-03T03:23:32.901792
MEAN_MOTION    = 14.88019129
ECCENTRICITY   = .0004265
INCLINATION    = 97.7999
RA_OF_ASC_NODE = 34.9382
ARG_OF_PERICENTER = 183.6916
MEAN_ANOMALY   = 176.4270

EPHEMERIS_TYPE = 0
CLASSIFICATION_TYPE = U
NORAD_CAT_ID   = 67382
ELEMENT_SET_NO = 999
REV_AT_EPOCH   = 335
BSTAR          = .30655E-3
MEAN_MOTION_DOT = .2761E-4
MEAN_MOTION_DDOT = 0

CCSDS_OMM_VERS = 2.0
CREATION_DATE  = 
ORIGINATOR     = 

OBJECT_NAME    = TWILIGHT W
OBJECT_ID      = 2026-004W
CENTER_NAME    = EARTH
REF_FRAME      = TEME
TIME_SYSTEM    = UTC
MEAN_ELEMENT_THEORY = SGP/SGP4

EPOCH          = 2026-02-03T03:29:30.304032
MEAN_MOTION    = 14.87752097
ECCENTRICITY   = .0004552
INCLINATION    = 97.7975
RA_OF_ASC_NODE = 34.9283
ARG_OF_PERICENTER = 200.7722
MEAN_ANOMALY   = 159.3311

EPHEMERIS_TYPE = 0
CLASSIFICATION_TYPE = U
NORAD_CAT_ID   = 67383
ELEMENT_SET_NO = 999
REV_AT_EPOCH   = 335
BSTAR          = .31464E-3
MEAN_MOTION_DOT = .2816E-4
MEAN_MOTION_DDOT = 0

CCSDS_OMM_VERS = 2.0
CREATION_DATE  = 
ORIGINATOR     = 

OBJECT_NAME    = TWILIGHT X
OBJECT_ID      = 2026-004X
CENTER_NAME    = EARTH
REF_FRAME      = TEME
TIME_SYSTEM    = UTC
MEAN_ELEMENT_THEORY = SGP/SGP4

EPOCH          = 2026-02-03T03:20:28.952736
MEAN_MOTION    = 14.88282136
ECCENTRICITY   = .0003699
INCLINATION    = 97.7972
RA_OF_ASC_NODE = 34.9362
ARG_OF_PERICENTER = 183.0598
MEAN_ANOMALY   = 177.0597

EPHEMERIS_TYPE = 0
CLASSIFICATION_TYPE = U
NORAD_CAT_ID   = 67384
ELEMENT_SET_NO = 999
REV_AT_EPOCH   = 335
BSTAR          = .74815E-3
MEAN_MOTION_DOT = .6864E-4
MEAN_MOTION_DDOT = 0

CCSDS_OMM_VERS = 2.0
CREATION_DATE  = 
ORIGINATOR     = 

OBJECT_NAME    = TWILIGHT Y
OBJECT_ID      = 2026-004Y
CENTER_NAME    = EARTH
REF_FRAME      = TEME
TIME_SYSTEM    = UTC
MEAN_ELEMENT_THEORY = SGP/SGP4

EPOCH          = 2026-02-03T03:18:37.598688
MEAN_MOTION    = 14.88375839
ECCENTRICITY   = .0003717
INCLINATION    = 97.7984
RA_OF_ASC_NODE = 34.9400
ARG_OF_PERICENTER = 176.5416
MEAN_ANOMALY   = 183.5827

EPHEMERIS_TYPE = 0
CLASSIFICATION_TYPE = U
NORAD_CAT_ID   = 67385
ELEMENT_SET_NO = 999
REV_AT_EPOCH   = 335
BSTAR          = .73021E-3
MEAN_MOTION_DOT = .6714E-4
MEAN_MOTION_DDOT = 0

CCSDS_OMM_VERS = 2.0
CREATION_DATE  = 
ORIGINATOR     = 

OBJECT_NAME    = TWILIGHT Z
OBJECT_ID      = 2026-004Z
CENTER_NAME    = EARTH
REF_FRAME      = TEME
TIME_SYSTEM    = UTC
MEAN_ELEMENT_THEORY = SGP/SGP4

EPOCH          = 2026-02-03T03:16:39.414720
MEAN_MOTION    = 14.88339970
ECCENTRICITY   = .0002501
INCLINATION    = 97.7965
RA_OF_ASC_NODE = 34.9392
ARG_OF_PERICENTER = 173.9715
MEAN_ANOMALY   = 186.1532

EPHEMERIS_TYPE = 0
CLASSIFICATION_TYPE = U
NORAD_CAT_ID   = 67386
ELEMENT_SET_NO = 999
REV_AT_EPOCH   = 335
BSTAR          = .4051E-3
MEAN_MOTION_DOT = .3695E-4
MEAN_MOTION_DDOT = 0

CCSDS_OMM_VERS = 2.0
CREATION_DATE  = 
ORIGINATOR     = 

OBJECT_NAME    = TWILIGHT AA
OBJECT_ID      = 2026-004AA
CENTER_NAME    = EARTH
REF_FRAME      = TEME
TIME_SYSTEM    = UTC
MEAN_ELEMENT_THEORY = SGP/SGP4

EPOCH          = 2026-02-03T03:10:55.934112
MEAN_MOTION    = 14.88684491
ECCENTRICITY   = .0003733
INCLINATION    = 97.8014
RA_OF_ASC_NODE = 34.9512
ARG_OF_PERICENTER = 147.3631
MEAN_ANOMALY   = 212.7817

EPHEMERIS_TYPE = 0
CLASSIFICATION_TYPE = U
NORAD_CAT_ID   = 67387
ELEMENT_SET_NO = 999
REV_AT_EPOCH   = 335
BSTAR          = .67804E-3
MEAN_MOTION_DOT = .6278E-4
MEAN_MOTION_DDOT = 0

CCSDS_OMM_VERS = 2.0
CREATION_DATE  = 
ORIGINATOR     = 

OBJECT_NAME    = TWILIGHT AB
OBJECT_ID      = 2026-004AB
CENTER_NAME    = EARTH
REF_FRAME      = TEME
TIME_SYSTEM    = UTC
MEAN_ELEMENT_THEORY = SGP/SGP4

EPOCH          = 2026-02-03T03:08:21.673824
MEAN_MOTION    = 14.88784960
ECCENTRICITY   = .0003293
INCLINATION    = 97.8003
RA_OF_ASC_NODE = 34.9520
ARG_OF_PERICENTER = 136.6715
MEAN_ANOMALY   = 223.4761

EPHEMERIS_TYPE = 0
CLASSIFICATION_TYPE = U
NORAD_CAT_ID   = 67388
ELEMENT_SET_NO = 999
REV_AT_EPOCH   = 335
BSTAR          = .66103E-3
MEAN_MOTION_DOT = .6134E-4
MEAN_MOTION_DDOT = 0

