TWILIGHT Q              
1 67377U 26004Q   26034.14227885  .00002963  00000+0  32889-3 0  9996
2 67377  97.8004  34.9378 0004484 186.7171 173.3987 14.87972229  3355
TWILIGHT R              
1 67378U 26004R   26034.14587432  .00002838  00000+0  31724-3 0  9992
2 67378  97.7975  34.9268 0004189 203.1861 156.9167 14.87726041  3358
TWILIGHT S              
1 67379U 26004S   26034.14570637  .00002767  00000+0  30932-3 0  9993
2 67379  97.7979  34.9289 0004728 199.9465 160.1567 14.87733711  3350
TWILIGHT T              
1 67380U 26004T   26034.14432189  .00002848  00000+0  31747-3 0  9999
2 67380  97.7971  34.9288 0004257 198.3150 161.7913 14.87834995  3352
TWILIGHT U              
1 67381U 26004U   26029.09880986 -.00108717  00000+0 -12141-1 0  9999
2 67381  97.8008  29.9801 0002046 271.4981  88.6001 14.87635167  2601
TWILIGHT V              
1 67382U 26004V   26034.14135303  .00002761  00000+0  30655-3 0  9990
2 67382  97.7999  34.9382 0004265 183.6916 176.4270 14.88019129  3359
TWILIGHT W              
1 67383U 26004W   26034.14548963  .00002816  00000+0  31464-3 0  9991
2 67383  97.7975  34.9283 0004552 200.7722 159.3311 14.87752097  3352
TWILIGHT X              
1 67384U 26004X   26034.13922399  .00006864  00000+0  74815-3 0  9994
2 67384  97.7972  34.9362 0003699 183.0598 177.0597 14.88282136  3359
TWILIGHT Y              
1 67385U 26004Y   26034.13793517  .00006714  00000+0  73021-3 0  9995
2 67385  97.7984  34.9400 0003717 176.5416 183.5827 14.88375839  3354
TWILIGHT Z              
1 67386U 26004Z   26034.13656730  .00003695  00000+0  40510-3 0  9993
2 67386  97.7965  34.9392 0002501 173.9715 186.1532 14.88339970  3355
TWILIGHT AA             
1 67387U 26004AA  26034.13259183  .00006278  00000+0  67804-3 0  9990
2 67387  97.8014  34.9512 0003733 147.3631 212.7817 14.88684491  3359
TWILIGHT AB             
1 67388U 26004AB  26034.13080641  .00006134  00000+0  66103-3 0  9994
2 67388  97.8003  34.9520 0003293 136.6715 223.4761 14.88784960  3351
